start=new Date('2022-03-03T00:00:00.000Z').valueOf();
sats=[{"EPHEMERIS_TYPE":"0","FILE":"3341695","MEAN_MOTION_DDOT":"0.0000000000000","PERIOD":"95.595","NORAD_CAT_ID":"48315","PERIAPSIS":"546.536","TLE_LINE1":"1 48315U 21036AR  22061.68332974  .00008512  00000-0  59024-3 0  9995","ECCENTRICITY":"0.00011500","OBJECT_TYPE":"PAYLOAD","RA_OF_ASC_NODE":"201.7624","ELEMENT_SET_NO":"999","MEAN_ELEMENT_THEORY":"SGP4","GP_ID":"197659941","CLASSIFICATION_TYPE":"U","ARG_OF_PERICENTER":"82.7049","TIME_SYSTEM":"UTC","SITE":"AFETR","RCS_SIZE":"LARGE","MEAN_ANOMALY":"277.4071","BSTAR":"0.00059024000000","SEMIMAJOR_AXIS":"6925.468","MEAN_MOTION":"15.06361182","REV_AT_EPOCH":"4690","MEAN_MOTION_DOT":"0.00008512","INCLINATION":"53.0532","EPOCH":"2022-03-02T16:23:59.689536","CENTER_NAME":"EARTH","COUNTRY_CODE":"US","DECAY_DATE":null,"APOAPSIS":"548.129","OBJECT_NAME":"STARLINK-2506","REF_FRAME":"TEME","LAUNCH_DATE":"2021-04-29","TLE_LINE2":"2 48315  53.0532 201.7624 0001150  82.7049 277.4071 15.06361182 46900","OBJECT_ID":"2021-036AR"},{"SITE":"AFETR","TIME_SYSTEM":"UTC","ARG_OF_PERICENTER":"69.5907","CLASSIFICATION_TYPE":"U","GP_ID":"197660192","MEAN_ELEMENT_THEORY":"SGP4","ELEMENT_SET_NO":"999","RA_OF_ASC_NODE":"201.7812","OBJECT_TYPE":"PAYLOAD","TLE_LINE1":"1 48316U 21036AS  22061.67963729 -.00000471  00000-0 -12719-4 0  9992","PERIAPSIS":"546.142","ECCENTRICITY":"0.00015510","PERIOD":"95.592","NORAD_CAT_ID":"48316","MEAN_MOTION_DDOT":"0.0000000000000","FILE":"3341695","EPHEMERIS_TYPE":"0","OBJECT_ID":"2021-036AS","TLE_LINE2":"2 48316  53.0533 201.7812 0001551  69.5907 290.5248 15.06399307 46904","REF_FRAME":"TEME","LAUNCH_DATE":"2021-04-29","OBJECT_NAME":"STARLINK-2507","APOAPSIS":"548.290","DECAY_DATE":null,"COUNTRY_CODE":"US","CENTER_NAME":"EARTH","EPOCH":"2022-03-02T16:18:40.661856","INCLINATION":"53.0533","MEAN_MOTION_DOT":"-0.00000471","REV_AT_EPOCH":"4690","SEMIMAJOR_AXIS":"6925.351","MEAN_MOTION":"15.06399307","BSTAR":"-0.00001271900000","MEAN_ANOMALY":"290.5248","RCS_SIZE":"LARGE"},{"INCLINATION":"53.0546","EPOCH":"2022-03-02T19:24:26.286912","CENTER_NAME":"EARTH","DECAY_DATE":null,"COUNTRY_CODE":"US","RCS_SIZE":"LARGE","MEAN_ANOMALY":"295.2035","BSTAR":"0.00006654700000","SEMIMAJOR_AXIS":"6925.343","MEAN_MOTION":"15.06401858","REV_AT_EPOCH":"4692","MEAN_MOTION_DOT":"0.00000710","OBJECT_ID":"2021-036AT","APOAPSIS":"548.056","OBJECT_NAME":"STARLINK-2513","LAUNCH_DATE":"2021-04-29","REF_FRAME":"TEME","TLE_LINE2":"2 48317  53.0546 201.2007 0001225  64.9081 295.2035 15.06401858 46923","TLE_LINE1":"1 48317U 21036AT  22061.80863758  .00000710  00000-0  66547-4 0  9991","ECCENTRICITY":"0.00012250","PERIAPSIS":"546.360","OBJECT_TYPE":"PAYLOAD","EPHEMERIS_TYPE":"0","FILE":"3341695","MEAN_MOTION_DDOT":"0.0000000000000","PERIOD":"95.592","NORAD_CAT_ID":"48317","ARG_OF_PERICENTER":"64.9081","TIME_SYSTEM":"UTC","SITE":"AFETR","ELEMENT_SET_NO":"999","RA_OF_ASC_NODE":"201.2007","MEAN_ELEMENT_THEORY":"SGP4","GP_ID":"197658939","CLASSIFICATION_TYPE":"U"},{"OBJECT_ID":"2021-036AU","TLE_LINE2":"2 48318  53.0538 211.5237 0001418  73.2404 286.8740 15.06404562 46777","OBJECT_NAME":"STARLINK-2509","REF_FRAME":"TEME","LAUNCH_DATE":"2021-04-29","APOAPSIS":"548.182","DECAY_DATE":null,"COUNTRY_CODE":"US","CENTER_NAME":"EARTH","INCLINATION":"53.0538","EPOCH":"2022-03-02T17:36:57.630240","REV_AT_EPOCH":"4677","MEAN_MOTION_DOT":"0.00001683","BSTAR":"0.00013185000000","SEMIMAJOR_AXIS":"6925.335","MEAN_MOTION":"15.06404562","RCS_SIZE":"LARGE","MEAN_ANOMALY":"286.8740","SITE":"AFETR","TIME_SYSTEM":"UTC","ARG_OF_PERICENTER":"73.2404","CLASSIFICATION_TYPE":"U","GP_ID":"197658690","MEAN_ELEMENT_THEORY":"SGP4","ELEMENT_SET_NO":"999","RA_OF_ASC_NODE":"211.5237","OBJECT_TYPE":"PAYLOAD","TLE_LINE1":"1 48318U 21036AU  22061.73400035  .00001683  00000-0  13185-3 0  9998","ECCENTRICITY":"0.00014180","PERIAPSIS":"546.218","MEAN_MOTION_DDOT":"0.0000000000000","PERIOD":"95.592","NORAD_CAT_ID":"48318","FILE":"3341695","EPHEMERIS_TYPE":"0"},{"CLASSIFICATION_TYPE":"U","GP_ID":"197659442","MEAN_ELEMENT_THEORY":"SGP4","ELEMENT_SET_NO":"999","RA_OF_ASC_NODE":"210.9363","SITE":"AFETR","TIME_SYSTEM":"UTC","ARG_OF_PERICENTER":"70.5495","MEAN_MOTION_DDOT":"0.0000000000000","NORAD_CAT_ID":"48319","PERIOD":"95.593","FILE":"3341695","EPHEMERIS_TYPE":"0","OBJECT_TYPE":"PAYLOAD","PERIAPSIS":"546.198","TLE_LINE1":"1 48319U 21036AV  22061.86301802  .00000643  00000-0  62041-4 0  9996","ECCENTRICITY":"0.00015020","TLE_LINE2":"2 48319  53.0553 210.9363 0001502  70.5495 289.5656 15.06392014 46798","OBJECT_NAME":"STARLINK-2512","REF_FRAME":"TEME","LAUNCH_DATE":"2021-04-29","APOAPSIS":"548.278","OBJECT_ID":"2021-036AV","REV_AT_EPOCH":"4679","MEAN_MOTION_DOT":"0.00000643","BSTAR":"0.00006204100000","MEAN_MOTION":"15.06392014","SEMIMAJOR_AXIS":"6925.373","RCS_SIZE":"LARGE","MEAN_ANOMALY":"289.5656","COUNTRY_CODE":"US","DECAY_DATE":null,"CENTER_NAME":"EARTH","INCLINATION":"53.0553","EPOCH":"2022-03-02T20:42:44.756928"},{"MEAN_MOTION_DOT":"0.00000361","REV_AT_EPOCH":"4677","MEAN_ANOMALY":"287.5130","RCS_SIZE":"LARGE","SEMIMAJOR_AXIS":"6925.372","MEAN_MOTION":"15.06392319","BSTAR":"0.00004314900000","COUNTRY_CODE":"US","DECAY_DATE":null,"EPOCH":"2022-03-02T17:26:21.696864","INCLINATION":"53.0559","CENTER_NAME":"EARTH","TLE_LINE2":"2 48320  53.0559 211.5597 0001405  72.6013 287.5130 15.06392319 46774","APOAPSIS":"548.210","LAUNCH_DATE":"2021-04-29","REF_FRAME":"TEME","OBJECT_NAME":"STARLINK-2029","OBJECT_ID":"2021-036AW","PERIOD":"95.593","NORAD_CAT_ID":"48320","MEAN_MOTION_DDOT":"0.0000000000000","EPHEMERIS_TYPE":"0","FILE":"3341695","OBJECT_TYPE":"PAYLOAD","TLE_LINE1":"1 48320U 21036AW  22061.72664001  .00000361  00000-0  43149-4 0  9991","ECCENTRICITY":"0.00014050","PERIAPSIS":"546.264","GP_ID":"197659693","CLASSIFICATION_TYPE":"U","ELEMENT_SET_NO":"999","RA_OF_ASC_NODE":"211.5597","MEAN_ELEMENT_THEORY":"SGP4","SITE":"AFETR","ARG_OF_PERICENTER":"72.6013","TIME_SYSTEM":"UTC"},{"GP_ID":"197658440","CLASSIFICATION_TYPE":"U","RA_OF_ASC_NODE":"211.5680","ELEMENT_SET_NO":"999","MEAN_ELEMENT_THEORY":"SGP4","SITE":"AFETR","ARG_OF_PERICENTER":"86.0808","TIME_SYSTEM":"UTC","PERIOD":"95.593","NORAD_CAT_ID":"48321","MEAN_MOTION_DDOT":"0.0000000000000","EPHEMERIS_TYPE":"0","FILE":"3341695","OBJECT_TYPE":"PAYLOAD","ECCENTRICITY":"0.00015040","TLE_LINE1":"1 48321U 21036AX  22061.72294777  .00000728  00000-0  67793-4 0  9999","PERIAPSIS":"546.199","TLE_LINE2":"2 48321  53.0547 211.5680 0001504  86.0808 274.0353 15.06391132 46776","APOAPSIS":"548.282","LAUNCH_DATE":"2021-04-29","REF_FRAME":"TEME","OBJECT_NAME":"STARLINK-2457","OBJECT_ID":"2021-036AX","MEAN_MOTION_DOT":"0.00000728","REV_AT_EPOCH":"4677","MEAN_ANOMALY":"274.0353","RCS_SIZE":"LARGE","MEAN_MOTION":"15.06391132","SEMIMAJOR_AXIS":"6925.376","BSTAR":"0.00006779300000","COUNTRY_CODE":"US","DECAY_DATE":null,"EPOCH":"2022-03-02T17:21:02.687328","INCLINATION":"53.0547","CENTER_NAME":"EARTH"},{"GP_ID":"197659190","CLASSIFICATION_TYPE":"U","ELEMENT_SET_NO":"999","RA_OF_ASC_NODE":"211.5818","MEAN_ELEMENT_THEORY":"SGP4","SITE":"AFETR","ARG_OF_PERICENTER":"64.8844","TIME_SYSTEM":"UTC","NORAD_CAT_ID":"48322","PERIOD":"95.592","MEAN_MOTION_DDOT":"0.0000000000000","EPHEMERIS_TYPE":"0","FILE":"3341695","OBJECT_TYPE":"PAYLOAD","PERIAPSIS":"546.222","TLE_LINE1":"1 48322U 21036AY  22061.71926158  .00000145  00000-0  28636-4 0  9990","ECCENTRICITY":"0.00014320","TLE_LINE2":"2 48322  53.0545 211.5818 0001432  64.8844 295.2294 15.06399926 46770","APOAPSIS":"548.205","LAUNCH_DATE":"2021-04-29","REF_FRAME":"TEME","OBJECT_NAME":"STARLINK-2477","OBJECT_ID":"2021-036AY","MEAN_MOTION_DOT":"0.00000145","REV_AT_EPOCH":"4677","MEAN_ANOMALY":"295.2294","RCS_SIZE":"LARGE","MEAN_MOTION":"15.06399926","SEMIMAJOR_AXIS":"6925.349","BSTAR":"0.00002863600000","COUNTRY_CODE":"US","DECAY_DATE":null,"EPOCH":"2022-03-02T17:15:44.200512","INCLINATION":"53.0545","CENTER_NAME":"EARTH"},{"DECAY_DATE":null,"COUNTRY_CODE":"US","CENTER_NAME":"EARTH","EPOCH":"2022-03-02T17:10:26.105088","INCLINATION":"53.0538","MEAN_MOTION_DOT":"-0.00001330","REV_AT_EPOCH":"4677","SEMIMAJOR_AXIS":"6925.375","MEAN_MOTION":"15.06391429","BSTAR":"-0.00007043900000","MEAN_ANOMALY":"295.6412","RCS_SIZE":"LARGE","OBJECT_ID":"2021-036AZ","TLE_LINE2":"2 48323  53.0538 211.6154 0001581  64.4741 295.6412 15.06391429 46770","LAUNCH_DATE":"2021-04-29","REF_FRAME":"TEME","OBJECT_NAME":"STARLINK-2515","APOAPSIS":"548.335","OBJECT_TYPE":"PAYLOAD","ECCENTRICITY":"0.00015810","TLE_LINE1":"1 48323U 21036AZ  22061.71557992 -.00001330  00000-0 -70439-4 0  9994","PERIAPSIS":"546.145","PERIOD":"95.593","NORAD_CAT_ID":"48323","MEAN_MOTION_DDOT":"0.0000000000000","FILE":"3341695","EPHEMERIS_TYPE":"0","SITE":"AFETR","TIME_SYSTEM":"UTC","ARG_OF_PERICENTER":"64.4741","CLASSIFICATION_TYPE":"U","GP_ID":"197659942","MEAN_ELEMENT_THEORY":"SGP4","ELEMENT_SET_NO":"999","RA_OF_ASC_NODE":"211.6154"},{"OBJECT_ID":"2021-036BA","APOAPSIS":"548.126","OBJECT_NAME":"STARLINK-2527","REF_FRAME":"TEME","LAUNCH_DATE":"2021-04-29","TLE_LINE2":"2 48324  53.0528 211.3367 0001291  74.3176 285.7955 15.06394098 46770","INCLINATION":"53.0528","EPOCH":"2022-03-02T18:40:39.894528","CENTER_NAME":"EARTH","DECAY_DATE":null,"COUNTRY_CODE":"US","RCS_SIZE":"LARGE","MEAN_ANOMALY":"285.7955","BSTAR":"-0.00007517200000","SEMIMAJOR_AXIS":"6925.367","MEAN_MOTION":"15.06394098","REV_AT_EPOCH":"4677","MEAN_MOTION_DOT":"-0.00001401","ARG_OF_PERICENTER":"74.3176","TIME_SYSTEM":"UTC","SITE":"AFETR","RA_OF_ASC_NODE":"211.3367","ELEMENT_SET_NO":"999","MEAN_ELEMENT_THEORY":"SGP4","GP_ID":"197660193","CLASSIFICATION_TYPE":"U","PERIAPSIS":"546.338","TLE_LINE1":"1 48324U 21036BA  22061.77823952 -.00001401  00000-0 -75172-4 0  9991","ECCENTRICITY":"0.00012910","OBJECT_TYPE":"PAYLOAD","EPHEMERIS_TYPE":"0","FILE":"3341695","MEAN_MOTION_DDOT":"0.0000000000000","NORAD_CAT_ID":"48324","PERIOD":"95.593"}];
